{
  "type": "FeatureCollection",
  "features": [
    {
      "type": "Feature",
      "properties": {
        "norad_id": 30527,
        "name": "FENGYUN 1C DEB",
        "group": "fengyun-1c-debris",
        "lat": -28.072364043536275,
        "lon": -149.79796711065157,
        "alt_km": 838.3403438495652,
        "timestamp": "2025-12-18T08:58:43.688582+00:00",
        "meta_object_name": "FENGYUN 1C DEB",
        "meta_object_id": "1999-025AJR",
        "meta_epoch": "2025-12-17T09:10:07.524192",
        "meta_mean_motion": 13.31043739,
        "meta_eccentricity": 0.04135358,
        "meta_inclination": 100.0634,
        "meta_ra_of_asc_node": 34.6642,
        "meta_arg_of_pericenter": 215.489,
        "meta_mean_anomaly": 281.8565,
        "meta_ephemeris_type": 0,
        "meta_classification_type": "U",
        "meta_norad_cat_id": 30527,
        "meta_element_set_no": 999,
        "meta_rev_at_epoch": 91418,
        "meta_bstar": 0.0014043054,
        "meta_mean_motion_dot": 1.027e-05,
        "meta_mean_motion_ddot": 0,
        "tle_line1": "1 30527U 99025AJR 25351.38203153  .00001027  00000+0  14043-2 0  9996",
        "tle_line2": "2 30527 100.0634  34.6642 0413535 215.4890 281.8565 13.31043739914180"
      },
      "geometry": {
        "type": "Point",
        "coordinates": [
          -149.79796711065157,
          -28.072364043536275
        ]
      }
    },
    {
      "type": "Feature",
      "properties": {
        "norad_id": 30528,
        "name": "FENGYUN 1C DEB",
        "group": "fengyun-1c-debris",
        "lat": 69.94192238841505,
        "lon": -161.8435083195739,
        "alt_km": 916.9251838183454,
        "timestamp": "2025-12-18T08:58:43.688593+00:00",
        "meta_object_name": "FENGYUN 1C DEB",
        "meta_object_id": "1999-025AJS",
        "meta_epoch": "2025-12-17T14:05:15.784800",
        "meta_mean_motion": 14.13500673,
        "meta_eccentricity": 0.0143602,
        "meta_inclination": 98.2377,
        "meta_ra_of_asc_node": 220.8071,
        "meta_arg_of_pericenter": 211.8389,
        "meta_mean_anomaly": 177.8456,
        "meta_ephemeris_type": 0,
        "meta_classification_type": "U",
        "meta_norad_cat_id": 30528,
        "meta_element_set_no": 999,
        "meta_rev_at_epoch": 97206,
        "meta_bstar": 0.00028570151,
        "meta_mean_motion_dot": 5.54e-06,
        "meta_mean_motion_ddot": 0,
        "tle_line1": "1 30528U 99025AJS 25351.58698825  .00000554  00000+0  28570-3 0  9998",
        "tle_line2": "2 30528  98.2377 220.8071 0143602 211.8389 177.8456 14.13500673972066"
      },
      "geometry": {
        "type": "Point",
        "coordinates": [
          -161.8435083195739,
          69.94192238841505
        ]
      }
    },
    {
      "type": "Feature",
      "properties": {
        "norad_id": 30529,
        "name": "FENGYUN 1C DEB",
        "group": "fengyun-1c-debris",
        "lat": 12.995727468221313,
        "lon": 95.5787163880802,
        "alt_km": 863.8986560282392,
        "timestamp": "2025-12-18T08:58:43.688603+00:00",
        "meta_object_name": "FENGYUN 1C DEB",
        "meta_object_id": "1999-025AJT",
        "meta_epoch": "2025-12-13T17:51:26.012448",
        "meta_mean_motion": 13.71609854,
        "meta_eccentricity": 0.02304788,
        "meta_inclination": 98.487,
        "meta_ra_of_asc_node": 269.5039,
        "meta_arg_of_pericenter": 219.6089,
        "meta_mean_anomaly": 138.8027,
        "meta_ephemeris_type": 0,
        "meta_classification_type": "U",
        "meta_norad_cat_id": 30529,
        "meta_element_set_no": 999,
        "meta_rev_at_epoch": 94022,
        "meta_bstar": 0.00122315,
        "meta_mean_motion_dot": 1.295e-05,
        "meta_mean_motion_ddot": 0,
        "tle_line1": "1 30529U 99025AJT 25347.74405107  .00001295  00000+0  12232-2 0  9991",
        "tle_line2": "2 30529  98.4870 269.5039 0230478 219.6089 138.8027 13.71609854940220"
      },
      "geometry": {
        "type": "Point",
        "coordinates": [
          95.5787163880802,
          12.995727468221313
        ]
      }
    },
    {
      "type": "Feature",
      "properties": {
        "norad_id": 30530,
        "name": "FENGYUN 1C DEB",
        "group": "fengyun-1c-debris",
        "lat": 21.591701691312476,
        "lon": 27.25524089042197,
        "alt_km": 778.369194508834,
        "timestamp": "2025-12-18T08:58:43.688613+00:00",
        "meta_object_name": "FENGYUN 1C DEB",
        "meta_object_id": "1999-025AJU",
        "meta_epoch": "2025-12-17T18:09:28.631232",
        "meta_mean_motion": 14.36790759,
        "meta_eccentricity": 0.01003522,
        "meta_inclination": 98.3958,
        "meta_ra_of_asc_node": 30.0037,
        "meta_arg_of_pericenter": 121.9444,
        "meta_mean_anomaly": 308.8143,
        "meta_ephemeris_type": 0,
        "meta_classification_type": "U",
        "meta_norad_cat_id": 30530,
        "meta_element_set_no": 999,
        "meta_rev_at_epoch": 98857,
        "meta_bstar": 0.00019072656,
        "meta_mean_motion_dot": 5.53e-06,
        "meta_mean_motion_ddot": 0,
        "tle_line1": "1 30530U 99025AJU 25351.75658138  .00000553  00000+0  19073-3 0  9990",
        "tle_line2": "2 30530  98.3958  30.0037 0100352 121.9444 308.8143 14.36790759988579"
      },
      "geometry": {
        "type": "Point",
        "coordinates": [
          27.25524089042197,
          21.591701691312476
        ]
      }
    },
    {
      "type": "Feature",
      "properties": {
        "norad_id": 30531,
        "name": "FENGYUN 1C DEB",
        "group": "fengyun-1c-debris",
        "lat": -32.94058947788211,
        "lon": -6.87918845629463,
        "alt_km": 674.700296885414,
        "timestamp": "2025-12-18T08:58:43.688623+00:00",
        "meta_object_name": "FENGYUN 1C DEB",
        "meta_object_id": "1999-025AJV",
        "meta_epoch": "2025-12-17T10:39:14.327712",
        "meta_mean_motion": 14.62050995,
        "meta_eccentricity": 0.00272041,
        "meta_inclination": 102.3102,
        "meta_ra_of_asc_node": 179.875,
        "meta_arg_of_pericenter": 193.5506,
        "meta_mean_anomaly": 166.4952,
        "meta_ephemeris_type": 0,
        "meta_classification_type": "U",
        "meta_norad_cat_id": 30531,
        "meta_element_set_no": 999,
        "meta_rev_at_epoch": 97764,
        "meta_bstar": 0.0031789803,
        "meta_mean_motion_dot": 0.00015997,
        "meta_mean_motion_ddot": 0,
        "tle_line1": "1 30531U 99025AJV 25351.44391583  .00015997  00000+0  31790-2 0  9992",
        "tle_line2": "2 30531 102.3102 179.8750 0027204 193.5506 166.4952 14.62050995977641"
      },
      "geometry": {
        "type": "Point",
        "coordinates": [
          -6.87918845629463,
          -32.94058947788211
        ]
      }
    },
    {
      "type": "Feature",
      "properties": {
        "norad_id": 30532,
        "name": "FENGYUN 1C DEB",
        "group": "fengyun-1c-debris",
        "lat": -32.144867427035216,
        "lon": -147.16059321396665,
        "alt_km": 470.1911061315268,
        "timestamp": "2025-12-18T08:58:43.688634+00:00",
        "meta_object_name": "FENGYUN 1C DEB",
        "meta_object_id": "1999-025AJW",
        "meta_epoch": "2025-12-17T19:29:13.827840",
        "meta_mean_motion": 15.28951245,
        "meta_eccentricity": 0.00228338,
        "meta_inclination": 96.961,
        "meta_ra_of_asc_node": 36.7166,
        "meta_arg_of_pericenter": 241.065,
        "meta_mean_anomaly": 118.8301,
        "meta_ephemeris_type": 0,
        "meta_classification_type": "U",
        "meta_norad_cat_id": 30532,
        "meta_element_set_no": 999,
        "meta_rev_at_epoch": 97765,
        "meta_bstar": 0.010285364,
        "meta_mean_motion_dot": 0.00302676,
        "meta_mean_motion_ddot": 0,
        "tle_line1": "1 30532U 99025AJW 25351.81196560  .00302676  00000+0  10285-1 0  9990",
        "tle_line2": "2 30532  96.9610  36.7166 0022833 241.0650 118.8301 15.28951245977659"
      },
      "geometry": {
        "type": "Point",
        "coordinates": [
          -147.16059321396665,
          -32.144867427035216
        ]
      }
    },
    {
      "type": "Feature",
      "properties": {
        "norad_id": 30533,
        "name": "FENGYUN 1C DEB",
        "group": "fengyun-1c-debris",
        "lat": 22.271729833459528,
        "lon": 117.84501318269557,
        "alt_km": 731.5807017737598,
        "timestamp": "2025-12-18T08:58:43.688645+00:00",
        "meta_object_name": "FENGYUN 1C DEB",
        "meta_object_id": "1999-025AJX",
        "meta_epoch": "2025-12-17T21:52:32.011968",
        "meta_mean_motion": 14.53943797,
        "meta_eccentricity": 0.0081893,
        "meta_inclination": 98.8334,
        "meta_ra_of_asc_node": 121.0087,
        "meta_arg_of_pericenter": 133.7457,
        "meta_mean_anomaly": 349.6708,
        "meta_ephemeris_type": 0,
        "meta_classification_type": "U",
        "meta_norad_cat_id": 30533,
        "meta_element_set_no": 999,
        "meta_rev_at_epoch": 97896,
        "meta_bstar": 0.0023550429,
        "meta_mean_motion_dot": 0.00010328,
        "meta_mean_motion_ddot": 0,
        "tle_line1": "1 30533U 99025AJX 25351.91148162  .00010328  00000+0  23550-2 0  9997",
        "tle_line2": "2 30533  98.8334 121.0087 0081893 133.7457 349.6708 14.53943797978967"
      },
      "geometry": {
        "type": "Point",
        "coordinates": [
          117.84501318269557,
          22.271729833459528
        ]
      }
    }
  ]
}